{"type": "FeatureCollection", "features": [ {"type": "Feature", "properties": {"norad_id": 39537, "name": "FENGYUN 1C DEB", "group": "fengyun-1c-debris", "lat": -45.32835358963049, "lon": -52.92725936124532, "alt_km": 985.7145047221838, "timestamp": "2025-12-16T19:34:24.557737+00:00", "meta": {"OBJECT_NAME": "FENGYUN 1C DEB", "OBJECT_ID": "1999-025EWE", "EPOCH": "2025-12-08T16:10:28.003008", "MEAN_MOTION": 13.84154142, "ECCENTRICITY": 0.01774078, "INCLINATION": 99.1538, "RA_OF_ASC_NODE": 128.5243, "ARG_OF_PERICENTER": 352.1329, "MEAN_ANOMALY": 7.7052, "EPHEMERIS_TYPE": 0, "CLASSIFICATION_TYPE": "U", "NORAD_CAT_ID": 39537, "ELEMENT_SET_NO": 999, "REV_AT_EPOCH": 59200, "BSTAR": 0.0019509183, "MEAN_MOTION_DOT": 2.413e-05, "MEAN_MOTION_DDOT": 0}, "tle": {"line1": "1 39537U 99025EWE 25342.67393522  .00002413  00000+0  19509-2 0  9990", "line2": "2 39537  99.1538 128.5243 0177407 352.1329   7.7052 13.84154142592000"}}, "geometry": {"type": "Point", "coordinates": [-52.92725936124532, -45.32835358963049]}}, {"type": "Feature", "properties": {"norad_id": 39541, "name": "FENGYUN 1C DEB", "group": "fengyun-1c-debris", "lat": 57.64661669640735, "lon": -133.19381714797166, "alt_km": 791.8454961699026, "timestamp": "2025-12-16T19:34:24.557747+00:00", "meta": {"OBJECT_NAME": "FENGYUN 1C DEB", "OBJECT_ID": "1999-025EWJ", "EPOCH": "2025-12-14T09:31:50.250432", "MEAN_MOTION": 14.20397112, "ECCENTRICITY": 0.00718166, "INCLINATION": 98.681, "RA_OF_ASC_NODE": 30.4764, "ARG_OF_PERICENTER": 68.7411, "MEAN_ANOMALY": 292.1416, "EPHEMERIS_TYPE": 0, "CLASSIFICATION_TYPE": "U", "NORAD_CAT_ID": 39541, "ELEMENT_SET_NO": 999, "REV_AT_EPOCH": 59026, "BSTAR": 0.00071004371, "MEAN_MOTION_DOT": 1.519e-05, "MEAN_MOTION_DDOT": 0}, "tle": {"line1": "1 39541U 99025EWJ 25348.39710938  .00001519  00000+0  71004-3 0  9999", "line2": "2 39541  98.6810  30.4764 0071816  68.7411 292.1416 14.20397112590267"}}, "geometry": {"type": "Point", "coordinates": [-133.19381714797166, 57.64661669640735]}}, {"type": "Feature", "properties": {"norad_id": 39543, "name": "FENGYUN 1C DEB", "group": "fengyun-1c-debris", "lat": -77.47738268419023, "lon": 66.22629721370792, "alt_km": 1214.0470938769276, "timestamp": "2025-12-16T19:34:24.557757+00:00", "meta": {"OBJECT_NAME": "FENGYUN 1C DEB", "OBJECT_ID": "1999-025EWL", "EPOCH": "2025-12-15T19:27:32.295744", "MEAN_MOTION": 13.70196386, "ECCENTRICITY": 0.03391764, "INCLINATION": 99.0417, "RA_OF_ASC_NODE": 19.4817, "ARG_OF_PERICENTER": 134.1183, "MEAN_ANOMALY": 228.8406, "EPHEMERIS_TYPE": 0, "CLASSIFICATION_TYPE": "U", "NORAD_CAT_ID": 39543, "ELEMENT_SET_NO": 999, "REV_AT_EPOCH": 49227, "BSTAR": 0.00081997629, "MEAN_MOTION_DOT": 1.046e-05, "MEAN_MOTION_DDOT": 0}, "tle": {"line1": "1 39543U 99025EWL 25349.81079046  .00001046  00000+0  81998-3 0  9995", "line2": "2 39543  99.0417  19.4817 0339176 134.1183 228.8406 13.70196386492274"}}, "geometry": {"type": "Point", "coordinates": [66.22629721370792, -77.47738268419023]}}, {"type": "Feature", "properties": {"norad_id": 39544, "name": "FENGYUN 1C DEB", "group": "fengyun-1c-debris", "lat": 52.847871784037814, "lon": 61.52572646781186, "alt_km": 894.294195141435, "timestamp": "2025-12-16T19:34:24.557767+00:00", "meta": {"OBJECT_NAME": "FENGYUN 1C DEB", "OBJECT_ID": "1999-025EWM", "EPOCH": "2025-12-08T09:22:33.750624", "MEAN_MOTION": 14.05512501, "ECCENTRICITY": 0.00547745, "INCLINATION": 98.7418, "RA_OF_ASC_NODE": 221.6849, "ARG_OF_PERICENTER": 21.3384, "MEAN_ANOMALY": 339.0051, "EPHEMERIS_TYPE": 0, "CLASSIFICATION_TYPE": "U", "NORAD_CAT_ID": 39544, "ELEMENT_SET_NO": 999, "REV_AT_EPOCH": 56794, "BSTAR": 0.00088149338, "MEAN_MOTION_DOT": 1.41e-05, "MEAN_MOTION_DDOT": 0}, "tle": {"line1": "1 39544U 99025EWM 25342.39066841  .00001410  00000+0  88149-3 0  9991", "line2": "2 39544  98.7418 221.6849 0054774  21.3384 339.0051 14.05512501567940"}}, "geometry": {"type": "Point", "coordinates": [61.52572646781186, 52.847871784037814]}}, {"type": "Feature", "properties": {"norad_id": 40688, "name": "FENGYUN 1C DEB", "group": "fengyun-1c-debris", "lat": 54.54869113233003, "lon": -27.002806790465158, "alt_km": 968.4764965190598, "timestamp": "2025-12-16T19:34:24.557777+00:00", "meta": {"OBJECT_NAME": "FENGYUN 1C DEB", "OBJECT_ID": "1999-025EWU", "EPOCH": "2025-12-14T04:30:59.989248", "MEAN_MOTION": 13.83830257, "ECCENTRICITY": 0.01422257, "INCLINATION": 98.9679, "RA_OF_ASC_NODE": 137.6767, "ARG_OF_PERICENTER": 27.6977, "MEAN_ANOMALY": 333.1663, "EPHEMERIS_TYPE": 0, "CLASSIFICATION_TYPE": "U", "NORAD_CAT_ID": 40688, "ELEMENT_SET_NO": 999, "REV_AT_EPOCH": 29937, "BSTAR": 0.00045383232, "MEAN_MOTION_DOT": 5.02e-06, "MEAN_MOTION_DDOT": 0}, "tle": {"line1": "1 40688U 99025EWU 25348.18819432  .00000502  00000+0  45383-3 0  9991", "line2": "2 40688  98.9679 137.6767 0142225  27.6977 333.1663 13.83830257299372"}}, "geometry": {"type": "Point", "coordinates": [-27.002806790465158, 54.54869113233003]}}, {"type": "Feature", "properties": {"norad_id": 40689, "name": "FENGYUN 1C DEB", "group": "fengyun-1c-debris", "lat": -66.2633700958443, "lon": -70.01932904716259, "alt_km": 1238.9520408802764, "timestamp": "2025-12-16T19:34:24.557787+00:00", "meta": {"OBJECT_NAME": "FENGYUN 1C DEB", "OBJECT_ID": "1999-025EWV", "EPOCH": "2025-12-15T14:00:17.692704", "MEAN_MOTION": 13.64713186, "ECCENTRICITY": 0.03107205, "INCLINATION": 99.1258, "RA_OF_ASC_NODE": 267.381, "ARG_OF_PERICENTER": 93.9269, "MEAN_ANOMALY": 269.7453, "EPHEMERIS_TYPE": 0, "CLASSIFICATION_TYPE": "U", "NORAD_CAT_ID": 40689, "ELEMENT_SET_NO": 999, "REV_AT_EPOCH": 54922, "BSTAR": 0.0014500265, "MEAN_MOTION_DOT": 1.584e-05, "MEAN_MOTION_DDOT": 0}, "tle": {"line1": "1 40689U 99025EWV 25349.58353811  .00001584  00000+0  14500-2 0  9998", "line2": "2 40689  99.1258 267.3810 0310720  93.9269 269.7453 13.64713186549229"}}, "geometry": {"type": "Point", "coordinates": [-70.01932904716259, -66.2633700958443]}}, {"type": "Feature", "properties": {"norad_id": 40691, "name": "FENGYUN 1C DEB", "group": "fengyun-1c-debris", "lat": 53.61820396219761, "lon": 10.466857908630255, "alt_km": 961.7354040031614, "timestamp": "2025-12-16T19:34:24.557797+00:00", "meta": {"OBJECT_NAME": "FENGYUN 1C DEB", "OBJECT_ID": "1999-025EWX", "EPOCH": "2025-12-03T08:15:02.306016", "MEAN_MOTION": 13.89944729, "ECCENTRICITY": 0.0128434, "INCLINATION": 99.0573, "RA_OF_ASC_NODE": 9.8547, "ARG_OF_PERICENTER": 336.6089, "MEAN_ANOMALY": 22.9259, "EPHEMERIS_TYPE": 0, "CLASSIFICATION_TYPE": "U", "NORAD_CAT_ID": 40691, "ELEMENT_SET_NO": 999, "REV_AT_EPOCH": 55305, "BSTAR": 0.00023937, "MEAN_MOTION_DOT": 2.71e-06, "MEAN_MOTION_DDOT": 0}, "tle": {"line1": "1 40691U 99025EWX 25337.34377669  .00000271  00000+0  23937-3 0  9996", "line2": "2 40691  99.0573   9.8547 0128434 336.6089  22.9259 13.89944729553058"}}, "geometry": {"type": "Point", "coordinates": [10.466857908630255, 53.61820396219761]}}, {"type": "Feature", "properties": {"norad_id": 40695, "name": "FENGYUN 1C DEB", "group": "fengyun-1c-debris", "lat": -66.21736315553213, "lon": 131.6646181914744, "alt_km": 553.9372949433655, "timestamp": "2025-12-16T19:34:24.557807+00:00", "meta": {"OBJECT_NAME": "FENGYUN 1C DEB", "OBJECT_ID": "1999-025EXB", "EPOCH": "2025-12-13T14:05:14.046432", "MEAN_MOTION": 14.50963945, "ECCENTRICITY": 0.02807692, "INCLINATION": 99.4256, "RA_OF_ASC_NODE": 105.901, "ARG_OF_PERICENTER": 330.5257, "MEAN_ANOMALY": 28.035, "EPHEMERIS_TYPE": 0, "CLASSIFICATION_TYPE": "U", "NORAD_CAT_ID": 40695, "ELEMENT_SET_NO": 999, "REV_AT_EPOCH": 31878, "BSTAR": 0.00027574233, "MEAN_MOTION_DOT": 1.742e-05, "MEAN_MOTION_DDOT": 0}, "tle": {"line1": "1 40695U 99025EXB 25347.58696813  .00001742  00000+0  27574-3 0  9997", "line2": "2 40695  99.4256 105.9010 0280769 330.5257  28.0350 14.50963945318785"}}, "geometry": {"type": "Point", "coordinates": [131.6646181914744, -66.21736315553213]}}, {"type": "Feature", "properties": {"norad_id": 40696, "name": "FENGYUN 1C DEB", "group": "fengyun-1c-debris", "lat": 75.13593523018383, "lon": -166.08284895763117, "alt_km": 922.6481212211147, "timestamp": "2025-12-16T19:34:24.557817+00:00", "meta": {"OBJECT_NAME": "FENGYUN 1C DEB", "OBJECT_ID": "1999-025EXC", "EPOCH": "2025-12-15T05:16:04.050048", "MEAN_MOTION": 13.96743528, "ECCENTRICITY": 0.00796045, "INCLINATION": 98.9559, "RA_OF_ASC_NODE": 335.9108, "ARG_OF_PERICENTER": 350.6175, "MEAN_ANOMALY": 9.3497, "EPHEMERIS_TYPE": 0, "CLASSIFICATION_TYPE": "U", "NORAD_CAT_ID": 40696, "ELEMENT_SET_NO": 999, "REV_AT_EPOCH": 55714, "BSTAR": 0.00010335532, "MEAN_MOTION_DOT": 1.04e-06, "MEAN_MOTION_DDOT": 0}, "tle": {"line1": "1 40696U 99025EXC 25349.21949132  .00000104  00000+0  10336-3 0  9994", "line2": "2 40696  98.9559 335.9108 0079604 350.6175   9.3497 13.96743528557146"}}, "geometry": {"type": "Point", "coordinates": [-166.08284895763117, 75.13593523018383]}}, {"type": "Feature", "properties": {"norad_id": 41003, "name": "FENGYUN 1C DEB", "group": "fengyun-1c-debris", "lat": 34.757577099090206, "lon": -95.94273418656931, "alt_km": 670.3461727930517, "timestamp": "2025-12-16T19:34:24.557827+00:00", "meta": {"OBJECT_NAME": "FENGYUN 1C DEB", "OBJECT_ID": "1999-025EXH", "EPOCH": "2025-12-15T14:04:04.869408", "MEAN_MOTION": 14.72950163, "ECCENTRICITY": 0.00698413, "INCLINATION": 98.9657, "RA_OF_ASC_NODE": 268.9907, "ARG_OF_PERICENTER": 283.326, "MEAN_ANOMALY": 76.0164, "EPHEMERIS_TYPE": 0, "CLASSIFICATION_TYPE": "U", "NORAD_CAT_ID": 41003, "ELEMENT_SET_NO": 999, "REV_AT_EPOCH": 52462, "BSTAR": 0.0026158699, "MEAN_MOTION_DOT": 0.00017419, "MEAN_MOTION_DDOT": 0}, "tle": {"line1": "1 41003U 99025EXH 25349.58616747  .00017419  00000+0  26159-2 0  9996", "line2": "2 41003  98.9657 268.9907 0069841 283.3260  76.0164 14.72950163524628"}}, "geometry": {"type": "Point", "coordinates": [-95.94273418656931, 34.757577099090206]}}]}